GAOFEN-11 01            
1 43585U 18063A   26193.64575396  .00011370  00000+0  16476-3 0  9997
2 43585  97.1285 260.4635 0002842 211.2756 148.8330 15.56019560444305
ICESAT-2                
1 43613U 18070A   26193.56097421  .00005976  00000+0  21662-3 0  9994
2 43613  92.0092 297.8355 0005642  71.2763 288.9098 15.28321928436337
HYSIS                   
1 43719U 18096A   26193.58794192  .00000338  00000+0  53193-4 0  9992
2 43719  97.9835 260.1354 0001860  84.9642 275.1782 14.78666597411171
KAZSTSAT                
1 43783U 18099AB  26193.58165001  .00000721  00000+0  62553-4 0  9993
2 43783  97.4318 224.3647 0007505 351.3734   8.7360 14.99951907415110
SAUDISAT 5A             
1 43831U 18102A   26193.63639568  .00003172  00000+0  11756-3 0  9993
2 43831  97.3058 254.7287 0010648  51.8363 308.3835 15.28304667419560
SAUDISAT 5B             
1 43833U 18102C   26193.65107348  .00003104  00000+0  11425-3 0  9991
2 43833  97.3167 257.8589 0011413  53.2184 307.0102 15.28548813419689
GAOFEN-10R              
1 44622U 19066A   26193.59001616  .00000611  00000+0  81859-4 0  9991
2 44622  98.0514 147.3556 0006979  59.7839 300.4064 14.83053881366148
CARTOSAT-3              
1 44804U 19081A   26193.64637750  .00002828  00000+0  13691-3 0  9990
2 44804  97.4298 255.1020 0013228  69.0252 291.2397 15.19313516367336
GAOFEN-12 01            
1 44819U 19082A   26193.62777016  .00000181  00000+0  30295-4 0  9995
2 44819  97.8107 199.3364 0001100  53.2055 306.9259 14.80478332357859
CSG-1                   
1 44873U 19092A   26193.57035257  .00000207  00000+0  32563-4 0  9993
2 44873  97.8893  16.8060 0001478  89.8013 270.3370 14.82155494355235
NEMO-HD                 
1 46277U 20061F   26193.65059361  .00007078  00000+0  15148-3 0  9994
2 46277  97.1911 255.3525 0001002  88.4257 271.7107 15.45103043325911
SENTINEL-6A             
1 46984U 20086A   26193.14785849 -.00000066  00000+0 -23530-4 0  9994
2 46984  66.0413  83.2101 0007807 269.9092  90.1028 12.80930066263520
CAS500-1                
1 47932U 21022A   26193.66879427  .00003636  00000+0  17114-3 0  9996
2 47932  97.3875  88.4029 0004929 176.7891 183.3377 15.20165352294636
GAOFEN-12 02            
1 48079U 21026A   26193.64156847  .00000164  00000+0  28480-4 0  9997
2 48079  97.9932 191.7194 0005667 138.8746 221.2893 14.80314885285523
PLEIADES NEO 3          
1 48268U 21034A   26193.64534740  .00001298  00000+0  17151-3 0  9999
2 48268  97.8943 268.0458 0001397  94.5484 265.5888 14.81681605281426
PLEIADES NEO 4          
1 49070U 21073E   26193.61157846  .00000318  00000+0  47084-4 0  9990
2 49070  97.8941 268.0086 0001328  92.8002 267.3363 14.81674515265134
LANDSAT 9               
1 49260U 21088A   26193.60438305  .00000140  00000+0  41221-4 0  9998
2 49260  98.2266 263.4743 0001209  89.4184 270.7153 14.57093805254706
CSG-2                   
1 51444U 22008A   26193.60406890  .00000340  00000+0  49321-4 0  9993
2 51444  97.8892  16.8340 0001520  86.6899 273.4488 14.82149237240350
GAOFEN-12 03            
1 52912U 22069A   26193.60825215  .00000333  00000+0  50622-4 0  9995
2 52912  97.8254  80.8345 0002503  75.5332 284.6157 14.80073436218379
SWOT                    
1 54754U 22173A   26193.56886466  .00000077  00000+0  53753-4 0  9990
2 54754  77.6108   1.0435 0000283  79.3908 280.7276 14.00172246182705
GAOFEN-12 04            
1 57654U 23123A   26193.62743147  .00000530  00000+0  77272-4 0  9999
2 57654  97.9103 111.2659 0003638  55.6711 304.4845 14.79772546156392
PARS 1                  
1 59065U 24039Q   26193.62221916  .00007378  00000+0  15161-3 0  9994
2 59065  97.4830 175.3546 0010089  35.2228 324.9686 15.46252921132572
RESURS-P 4              
1 59371U 24061A   26193.60260341  .00001749  00000+0  58572-4 0  9992
2 59371  97.2758 141.0621 0003215  93.2644 266.8966 15.32270477127651
LEGION 1                
1 59625U 24081A   26193.56034537  .00002160  00000+0  11324-3 0  9998
2 59625  97.5015 271.1480 0007680 280.5194  79.5173 15.16833331121380
LEGION 2                
1 59626U 24081B   26193.52472242  .00001916  00000+0  10085-3 0  9995
2 59626  97.5015 271.2096 0010080 243.8669 116.1527 15.16812069121388
ALOS-4 (DAICHI-4)       
1 60182U 24123A   26193.52084325  .00000760  00000+0  10865-3 0  9994
2 60182  97.9221 290.3332 0001595  97.6249 262.5144 14.79477147109621
LEGION 3                
1 60452U 24146A   26193.56833902  .00002009  00000+0  11746-3 0  9993
2 60452  45.0011 254.4690 0008439 319.8272  40.1982 15.15645963105876
LEGION 4                
1 60453U 24146B   26193.56813276  .00002522  00000+0  14390-3 0  9994
2 60453  45.0029 346.3367 0008929  97.1260 263.0634 15.15668886104727
SENTINEL-2C             
1 60989U 24157A   26193.13758834  .00000032  00000+0  28739-4 0  9998
2 60989  98.5685 267.5657 0000942 100.4834 259.6456 14.30815122 96557
IONOSFERA-M 1           
1 61735U 24199A   26193.58141120  .00000029  00000+0  32353-4 0  9990
2 61735  98.7139  66.4816 0002188  76.1839 283.9582 14.22758752131314
