OBJECT_NAME,OBJECT_ID,EPOCH,MEAN_MOTION,ECCENTRICITY,INCLINATION,RA_OF_ASC_NODE,ARG_OF_PERICENTER,MEAN_ANOMALY,EPHEMERIS_TYPE,CLASSIFICATION_TYPE,NORAD_CAT_ID,ELEMENT_SET_NO,REV_AT_EPOCH,BSTAR,MEAN_MOTION_DOT,MEAN_MOTION_DDOT
GAOFEN-11 01,2018-063A,2026-07-12T15:29:53.142144,15.56019560,.00028422,97.1285,260.4635,211.2756,148.8330,0,U,43585,999,44430,.1647554E-3,.1137E-3,0
ICESAT-2,2018-070A,2026-07-12T13:27:48.171744,15.28321928,.00056421,92.0092,297.8355,71.2763,288.9098,0,U,43613,999,43633,.21662026E-3,.5976E-4,0
HYSIS,2018-096A,2026-07-12T14:06:38.181888,14.78666597,.00018609,97.9835,260.1354,84.9642,275.1782,0,U,43719,999,41117,.53192706E-4,.338E-5,0
KAZSTSAT,2018-099AB,2026-07-12T13:57:34.560864,14.99951907,.00075053,97.4318,224.3647,351.3734,8.7360,0,U,43783,999,41511,.62553304E-4,.721E-5,0
SAUDISAT 5A,2018-102A,2026-07-12T15:16:24.586752,15.28304667,.00106486,97.3058,254.7287,51.8363,308.3835,0,U,43831,999,41956,.11755776E-3,.3172E-4,0
SAUDISAT 5B,2018-102C,2026-07-12T15:37:32.748672,15.28548813,.00114135,97.3167,257.8589,53.2184,307.0102,0,U,43833,999,41968,.11425325E-3,.3104E-4,0
GAOFEN-10R,2019-066A,2026-07-12T14:09:37.396224,14.83053881,.00069794,98.0514,147.3556,59.7839,300.4064,0,U,44622,999,36614,.81859242E-4,.611E-5,0
CARTOSAT-3,2019-081A,2026-07-12T15:30:47.016000,15.19313516,.00132284,97.4298,255.1020,69.0252,291.2397,0,U,44804,999,36733,.13691441E-3,.2828E-4,0
GAOFEN-12 01,2019-082A,2026-07-12T15:03:59.341824,14.80478332,.00011007,97.8107,199.3364,53.2055,306.9259,0,U,44819,999,35785,.30294799E-4,.181E-5,0
CSG-1,2019-092A,2026-07-12T13:41:18.462048,14.82155494,.00014786,97.8893,16.8060,89.8013,270.3370,0,U,44873,999,35523,.325631E-4,.207E-5,0
NEMO-HD,2020-061F,2026-07-12T15:36:51.287904,15.45103043,.00010026,97.1911,255.3525,88.4257,271.7107,0,U,46277,999,32591,.15147591E-3,.7078E-4,0
SENTINEL-6A,2020-086A,2026-07-12T03:32:54.973536,12.80930066,.00078072,66.0413,83.2101,269.9092,90.1028,0,U,46984,999,26352,-.23530294E-4,-.66E-6,0
CAS500-1,2021-022A,2026-07-12T16:03:03.824928,15.20165352,.00049299,97.3875,88.4029,176.7891,183.3377,0,U,47932,999,29463,.17114057E-3,.3636E-4,0
GAOFEN-12 02,2021-026A,2026-07-12T15:23:51.515808,14.80314885,.00056676,97.9932,191.7194,138.8746,221.2893,0,U,48079,999,28552,.28480061E-4,.164E-5,0
PLEIADES NEO 3,2021-034A,2026-07-12T15:29:18.015360,14.81681605,.00013976,97.8943,268.0458,94.5484,265.5888,0,U,48268,999,28142,.17150634E-3,.1298E-4,0
PLEIADES NEO 4,2021-073E,2026-07-12T14:40:40.378944,14.81674515,.00013281,97.8941,268.0086,92.8002,267.3363,0,U,49070,999,26513,.47084236E-4,.318E-5,0
LANDSAT 9,2021-088A,2026-07-12T14:30:18.695520,14.57093805,.00012095,98.2266,263.4743,89.4184,270.7153,0,U,49260,999,25470,.41221028E-4,.14E-5,0
CSG-2,2022-008A,2026-07-12T14:29:51.552960,14.82149237,.00015206,97.8892,16.8340,86.6899,273.4488,0,U,51444,999,24035,.49320623E-4,.34E-5,0
GAOFEN-12 03,2022-069A,2026-07-12T14:35:52.985760,14.80073436,.00025034,97.8254,80.8345,75.5332,284.6157,0,U,52912,999,21837,.50622496E-4,.333E-5,0
SWOT,2022-173A,2026-07-12T13:39:09.906624,14.00172246,.00002835,77.6108,1.0435,79.3908,280.7276,0,U,54754,999,18270,.5375251E-4,.77E-6,0
GAOFEN-12 04,2023-123A,2026-07-12T15:03:30.079008,14.79772546,.00036381,97.9103,111.2659,55.6711,304.4845,0,U,57654,999,15639,.7727239E-4,.53E-5,0
PARS 1,2024-039Q,2026-07-12T14:55:59.735424,15.46252921,.00100892,97.4830,175.3546,35.2228,324.9686,0,U,59065,999,13257,.15161349E-3,.7378E-4,0
RESURS-P 4,2024-061A,2026-07-12T14:27:44.934624,15.32270477,.00032159,97.2758,141.0621,93.2644,266.8966,0,U,59371,999,12765,.58572466E-4,.1749E-4,0
LEGION 1,2024-081A,2026-07-12T13:26:53.839968,15.16833331,.00076802,97.5015,271.1480,280.5194,79.5173,0,U,59625,999,12138,.11324286E-3,.216E-4,0
LEGION 2,2024-081B,2026-07-12T12:35:36.017088,15.16812069,.00100803,97.5015,271.2096,243.8669,116.1527,0,U,59626,999,12138,.10085436E-3,.1916E-4,0
ALOS-4 (DAICHI-4),2024-123A,2026-07-12T12:30:00.856800,14.79477147,.00015957,97.9221,290.3332,97.6249,262.5144,0,U,60182,999,10962,.10864574E-3,.76E-5,0
LEGION 3,2024-146A,2026-07-12T13:38:24.491328,15.15645963,.00084393,45.0011,254.4690,319.8272,40.1982,0,U,60452,999,10587,.11745698E-3,.2009E-4,0
LEGION 4,2024-146B,2026-07-12T13:38:06.670464,15.15668886,.00089292,45.0029,346.3367,97.1260,263.0634,0,U,60453,999,10472,.14389699E-3,.2522E-4,0
SENTINEL-2C,2024-157A,2026-07-12T03:18:07.632576,14.30815122,.00009426,98.5685,267.5657,100.4834,259.6456,0,U,60989,999,9655,.28739081E-4,.32E-6,0
IONOSFERA-M 1,2024-199A,2026-07-12T13:57:13.927680,14.22758752,.0002188,98.7139,66.4816,76.1839,283.9582,0,U,61735,999,13131,.32353202E-4,.29E-6,0
